KUIPER-00133            
1 65764U 25217C   25316.25003472 -.00689248  00000+0 -45048-1 0  9995
2 65764  51.8904 214.4923 0009938 288.1007 276.2072 15.09798042  5104
KUIPER-00139            
1 65765U 25217D   25316.25003472 -.01025006  00000+0 -47100-1 0  9994
2 65765  51.8708 212.9873 0006595 260.2212 302.6145 15.22736948  4857
KUIPER-00142            
1 65766U 25217E   25316.11315896  .00044861  00000+0  12027-2 0  9994
2 65766  51.8694 212.4787 0002424 218.3427 141.7387 15.37536534  7331
KUIPER-00145            
1 65767U 25217F   25315.99059673  .00052447  00000+0  14230-2 0  9995
2 65767  51.8720 213.1572 0003011 236.5465 123.5234 15.37093190  7312
KUIPER-00147            
1 65768U 25217G   25316.01870608  .00038555  00000+0  10874-2 0  9993
2 65768  51.8630 213.3175 0005142 262.5810  97.4592 15.36019390  7319
KUIPER-00148            
1 65769U 25217H   25316.23602496  .00080972  00000+0  22933-2 0  9995
2 65769  51.8604 212.4962 0008784 279.5886  80.4107 15.35527797  7342
KUIPER-00150            
1 65770U 25217J   25316.25003472 -.01133174  00000+0 -62447-1 0  9997
2 65770  51.8711 213.6889 0007065 272.7160 245.5516 15.16340929  5148
KUIPER-00151            
1 65771U 25217K   25316.25003472 -.00023116  00000+0 -68969-3 0  9998
2 65771  51.8700 212.0044 0004558 226.6963  83.0466 15.33684784  5009
